{
  "type": "FeatureCollection",
  "features": [
    {
      "type": "Feature",
      "properties": {
        "norad_id": 37781,
        "name": "HAIYANG-2A",
        "group": "resource",
        "lat": 75.6364373519849,
        "lon": -60.754117285275136,
        "alt_km": 959.6430937338773,
        "timestamp": "2025-12-04T03:47:54.210571+00:00",
        "meta_object_name": "HAIYANG-2A",
        "meta_object_id": "2011-043A",
        "meta_epoch": "2025-12-03T20:27:01.594656",
        "meta_mean_motion": 13.78834181,
        "meta_eccentricity": 0.0001647,
        "meta_inclination": 99.3377,
        "meta_ra_of_asc_node": 338.9236,
        "meta_arg_of_pericenter": 95.9453,
        "meta_mean_anomaly": 264.1886,
        "meta_ephemeris_type": 0,
        "meta_classification_type": "U",
        "meta_norad_cat_id": 37781,
        "meta_element_set_no": 999,
        "meta_rev_at_epoch": 71976,
        "meta_bstar": 5.4561e-05,
        "meta_mean_motion_dot": 1.1e-07,
        "meta_mean_motion_ddot": 0,
        "tle_line1": "1 37781U 11043A   25337.85210179  .00000011  00000+0  54561-4 0  9994",
        "tle_line2": "2 37781  99.3377 338.9236 0001647  95.9453 264.1886 13.78834181719762"
      },
      "geometry": {
        "type": "Point",
        "coordinates": [
          -60.754117285275136,
          75.6364373519849
        ]
      }
    },
    {
      "type": "Feature",
      "properties": {
        "norad_id": 37791,
        "name": "RASAT",
        "group": "resource",
        "lat": -31.20996634595657,
        "lon": 72.47179916775559,
        "alt_km": 682.0909963193199,
        "timestamp": "2025-12-04T03:47:54.210582+00:00",
        "meta_object_name": "RASAT",
        "meta_object_id": "2011-044D",
        "meta_epoch": "2025-12-03T20:23:21.905376",
        "meta_mean_motion": 14.67888692,
        "meta_eccentricity": 0.0021963,
        "meta_inclination": 98.0656,
        "meta_ra_of_asc_node": 67.2392,
        "meta_arg_of_pericenter": 91.7858,
        "meta_mean_anomaly": 46.6232,
        "meta_ephemeris_type": 0,
        "meta_classification_type": "U",
        "meta_norad_cat_id": 37791,
        "meta_element_set_no": 999,
        "meta_rev_at_epoch": 76452,
        "meta_bstar": 0.00018455,
        "meta_mean_motion_dot": 1.01e-05,
        "meta_mean_motion_ddot": 0,
        "tle_line1": "1 37791U 11044D   25337.84955909  .00001010  00000+0  18455-3 0  9993",
        "tle_line2": "2 37791  98.0656  67.2392 0021963  91.7858  46.6232 14.67888692764527"
      },
      "geometry": {
        "type": "Point",
        "coordinates": [
          72.47179916775559,
          -31.20996634595657
        ]
      }
    },
    {
      "type": "Feature",
      "properties": {
        "norad_id": 37841,
        "name": "SRMSAT",
        "group": "resource",
        "lat": -18.169453494977322,
        "lon": 95.23743110845615,
        "alt_km": 851.8360626697295,
        "timestamp": "2025-12-04T03:47:54.210592+00:00",
        "meta_object_name": "SRMSAT",
        "meta_object_id": "2011-058D",
        "meta_epoch": "2025-12-03T18:24:08.534880",
        "meta_mean_motion": 14.11506453,
        "meta_eccentricity": 0.0011727,
        "meta_inclination": 19.9699,
        "meta_ra_of_asc_node": 162.2602,
        "meta_arg_of_pericenter": 213.9486,
        "meta_mean_anomaly": 246.2515,
        "meta_ephemeris_type": 0,
        "meta_classification_type": "U",
        "meta_norad_cat_id": 37841,
        "meta_element_set_no": 999,
        "meta_rev_at_epoch": 73017,
        "meta_bstar": 0.0001283,
        "meta_mean_motion_dot": 5.01e-06,
        "meta_mean_motion_ddot": 0,
        "tle_line1": "1 37841U 11058D   25337.76676545  .00000501  00000+0  12830-3 0  9996",
        "tle_line2": "2 37841  19.9699 162.2602 0011727 213.9486 246.2515 14.11506453730171"
      },
      "geometry": {
        "type": "Point",
        "coordinates": [
          95.23743110845615,
          -18.169453494977322
        ]
      }
    },
    {
      "type": "Feature",
      "properties": {
        "norad_id": 38012,
        "name": "PLEIADES 1A",
        "group": "resource",
        "lat": 51.298198711664895,
        "lon": 40.71206681011127,
        "alt_km": 692.2336983491014,
        "timestamp": "2025-12-04T03:47:54.210602+00:00",
        "meta_object_name": "PLEIADES 1A",
        "meta_object_id": "2011-076F",
        "meta_epoch": "2025-12-03T11:40:23.265696",
        "meta_mean_motion": 14.58546648,
        "meta_eccentricity": 0.0001406,
        "meta_inclination": 98.1834,
        "meta_ra_of_asc_node": 50.3974,
        "meta_arg_of_pericenter": 81.1954,
        "meta_mean_anomaly": 45.0933,
        "meta_ephemeris_type": 0,
        "meta_classification_type": "U",
        "meta_norad_cat_id": 38012,
        "meta_element_set_no": 999,
        "meta_rev_at_epoch": 74346,
        "meta_bstar": 0.00015427,
        "meta_mean_motion_dot": 6.72e-06,
        "meta_mean_motion_ddot": 0,
        "tle_line1": "1 38012U 11076F   25337.48638039  .00000672  00000+0  15427-3 0  9996",
        "tle_line2": "2 38012  98.1834  50.3974 0001406  81.1954  45.0933 14.58546648743465"
      },
      "geometry": {
        "type": "Point",
        "coordinates": [
          40.71206681011127,
          51.298198711664895
        ]
      }
    },
    {
      "type": "Feature",
      "properties": {
        "norad_id": 38038,
        "name": "ZIYUAN 1-02C (ZY 1-02C)",
        "group": "resource",
        "lat": -53.034917589585945,
        "lon": -147.04106469941814,
        "alt_km": 770.5639082589933,
        "timestamp": "2025-12-04T03:47:54.210612+00:00",
        "meta_object_name": "ZIYUAN 1-02C (ZY 1-02C)",
        "meta_object_id": "2011-079A",
        "meta_epoch": "2025-12-03T12:15:35.892576",
        "meta_mean_motion": 14.37995212,
        "meta_eccentricity": 0.0006784,
        "meta_inclination": 98.4346,
        "meta_ra_of_asc_node": 43.6942,
        "meta_arg_of_pericenter": 164.0408,
        "meta_mean_anomaly": 319.9944,
        "meta_ephemeris_type": 0,
        "meta_classification_type": "U",
        "meta_norad_cat_id": 38038,
        "meta_element_set_no": 999,
        "meta_rev_at_epoch": 73108,
        "meta_bstar": 0.00027839,
        "meta_mean_motion_dot": 7.99e-06,
        "meta_mean_motion_ddot": 0,
        "tle_line1": "1 38038U 11079A   25337.51083209  .00000799  00000+0  27839-3 0  9994",
        "tle_line2": "2 38038  98.4346  43.6942 0006784 164.0408 319.9944 14.37995212731085"
      },
      "geometry": {
        "type": "Point",
        "coordinates": [
          -147.04106469941814,
          -53.034917589585945
        ]
      }
    },
    {
      "type": "Feature",
      "properties": {
        "norad_id": 38046,
        "name": "ZIYUAN 3-1 (ZY 3-1)",
        "group": "resource",
        "lat": -12.563645679142294,
        "lon": 45.99509594676009,
        "alt_km": 371.28146360939354,
        "timestamp": "2025-12-04T03:47:54.210622+00:00",
        "meta_object_name": "ZIYUAN 3-1 (ZY 3-1)",
        "meta_object_id": "2012-001A",
        "meta_epoch": "2025-12-03T12:31:28.488000",
        "meta_mean_motion": 15.66784662,
        "meta_eccentricity": 0.000223,
        "meta_inclination": 97.1778,
        "meta_ra_of_asc_node": 43.7357,
        "meta_arg_of_pericenter": 31.2198,
        "meta_mean_anomaly": 328.9195,
        "meta_ephemeris_type": 0,
        "meta_classification_type": "U",
        "meta_norad_cat_id": 38046,
        "meta_element_set_no": 999,
        "meta_rev_at_epoch": 77352,
        "meta_bstar": 0.00080727,
        "meta_mean_motion_dot": 0.00085596,
        "meta_mean_motion_ddot": 0,
        "tle_line1": "1 38046U 12001A   25337.52185750  .00085596  00000+0  80727-3 0  9997",
        "tle_line2": "2 38046  97.1778  43.7357 0002230  31.2198 328.9195 15.66784662773524"
      },
      "geometry": {
        "type": "Point",
        "coordinates": [
          45.99509594676009,
          -12.563645679142294
        ]
      }
    },
    {
      "type": "Feature",
      "properties": {
        "norad_id": 38338,
        "name": "ARIRANG-3 (KOMPSAT-3)",
        "group": "resource",
        "lat": -31.974326435707642,
        "lon": 107.4353429081927,
        "alt_km": 697.5927171613494,
        "timestamp": "2025-12-04T03:47:54.210633+00:00",
        "meta_object_name": "ARIRANG-3 (KOMPSAT-3)",
        "meta_object_id": "2012-025B",
        "meta_epoch": "2025-12-03T12:02:38.662368",
        "meta_mean_motion": 14.61692181,
        "meta_eccentricity": 0.0006016,
        "meta_inclination": 98.3308,
        "meta_ra_of_asc_node": 292.0224,
        "meta_arg_of_pericenter": 7.8954,
        "meta_mean_anomaly": 352.234,
        "meta_ephemeris_type": 0,
        "meta_classification_type": "U",
        "meta_norad_cat_id": 38338,
        "meta_element_set_no": 999,
        "meta_rev_at_epoch": 72275,
        "meta_bstar": 0.000197,
        "meta_mean_motion_dot": 9.33e-06,
        "meta_mean_motion_ddot": 0,
        "tle_line1": "1 38338U 12025B   25337.50183637  .00000933  00000+0  19700-3 0  9992",
        "tle_line2": "2 38338  98.3308 292.0224 0006016   7.8954 352.2340 14.61692181722756"
      },
      "geometry": {
        "type": "Point",
        "coordinates": [
          107.4353429081927,
          -31.974326435707642
        ]
      }
    }
  ]
}